{"fetched_at":"2026-03-29T16:36:15Z","count":15609,"tles":[{"name":"STARLINK-35495","line1":"1 66243U 25245K   26087.78168603  .00037032  00000+0  12559-2 0  9999","line2":"2 66243  53.1577 194.9270 0000904  76.8454 283.2648 15.30208116 24174","category":"Starlink"}]}